{
  "norad_id": 68198,
  "name": "2026-052A",
  "history": [
    {
      "epoch": "2026-03-26T14:56:36.140064Z",
      "apogee_km": 545.5427759414979,
      "perigee_km": 527.5959321877772,
      "latitude_deg": 4.844761139311135e-05,
      "longitude_deg": 113.48616403633935,
      "height_km": 545.9108207765605,
      "semi_major_axis_km": 6914.706354064637,
      "eccentricity": 0.00129773,
      "inclination_deg": 97.5376,
      "raan_deg": 161.7059,
      "arg_perigee_deg": 225.7685,
      "mean_anomaly_deg": 134.248,
      "mean_motion_rev_day": 15.09879016
    }
  ]
}